CCSDS_OMM_VERS = 2.0
CREATION_DATE  = 
ORIGINATOR     = 

OBJECT_NAME    = ISS (ZARYA)
OBJECT_ID      = 1998-067A
CENTER_NAME    = EARTH
REF_FRAME      = TEME
TIME_SYSTEM    = UTC
MEAN_ELEMENT_THEORY = SGP/SGP4

EPOCH          = 2026-03-30T22:32:53.905920
MEAN_MOTION    = 15.48666868
ECCENTRICITY   = .00062127
INCLINATION    = 51.6341
RA_OF_ASC_NODE = 327.3071
ARG_OF_PERICENTER = 253.0090
MEAN_ANOMALY   = 107.0218

EPHEMERIS_TYPE = 0
CLASSIFICATION_TYPE = U
NORAD_CAT_ID   = 25544
ELEMENT_SET_NO = 999
REV_AT_EPOCH   = 55962
BSTAR          = .22734022E-3
MEAN_MOTION_DOT = .11955E-3
MEAN_MOTION_DDOT = 0

CCSDS_OMM_VERS = 2.0
CREATION_DATE  = 
ORIGINATOR     = 

OBJECT_NAME    = POISK
OBJECT_ID      = 2009-060A
CENTER_NAME    = EARTH
REF_FRAME      = TEME
TIME_SYSTEM    = UTC
MEAN_ELEMENT_THEORY = SGP/SGP4

EPOCH          = 2026-03-30T22:32:53.905920
MEAN_MOTION    = 15.48666868
ECCENTRICITY   = .00062127
INCLINATION    = 51.6341
RA_OF_ASC_NODE = 327.3071
ARG_OF_PERICENTER = 253.0090
MEAN_ANOMALY   = 107.0218

EPHEMERIS_TYPE = 0
CLASSIFICATION_TYPE = U
NORAD_CAT_ID   = 36086
ELEMENT_SET_NO = 999
REV_AT_EPOCH   = 55903
BSTAR          = .22734022E-3
MEAN_MOTION_DOT = .11955E-3
MEAN_MOTION_DDOT = 0

CCSDS_OMM_VERS = 2.0
CREATION_DATE  = 
ORIGINATOR     = 

OBJECT_NAME    = CSS (TIANHE)
OBJECT_ID      = 2021-035A
CENTER_NAME    = EARTH
REF_FRAME      = TEME
TIME_SYSTEM    = UTC
MEAN_ELEMENT_THEORY = SGP/SGP4

EPOCH          = 2026-03-30T18:16:38.163648
MEAN_MOTION    = 15.61714186
ECCENTRICITY   = .00037162
INCLINATION    = 41.4667
RA_OF_ASC_NODE = 79.8424
ARG_OF_PERICENTER = 71.4537
MEAN_ANOMALY   = 288.6706

EPHEMERIS_TYPE = 0
CLASSIFICATION_TYPE = U
NORAD_CAT_ID   = 48274
ELEMENT_SET_NO = 999
REV_AT_EPOCH   = 28090
BSTAR          = .33197022E-3
MEAN_MOTION_DOT = .2927E-3
MEAN_MOTION_DDOT = 0

CCSDS_OMM_VERS = 2.0
CREATION_DATE  = 
ORIGINATOR     = 

OBJECT_NAME    = ISS (NAUKA)
OBJECT_ID      = 2021-066A
CENTER_NAME    = EARTH
REF_FRAME      = TEME
TIME_SYSTEM    = UTC
MEAN_ELEMENT_THEORY = SGP/SGP4

EPOCH          = 2026-03-30T22:32:53.905920
MEAN_MOTION    = 15.48666868
ECCENTRICITY   = .00062127
INCLINATION    = 51.6341
RA_OF_ASC_NODE = 327.3071
ARG_OF_PERICENTER = 253.0090
MEAN_ANOMALY   = 107.0218

EPHEMERIS_TYPE = 0
CLASSIFICATION_TYPE = U
NORAD_CAT_ID   = 49044
ELEMENT_SET_NO = 999
REV_AT_EPOCH   = 55907
BSTAR          = .22734022E-3
MEAN_MOTION_DOT = .11955E-3
MEAN_MOTION_DDOT = 0

CCSDS_OMM_VERS = 2.0
CREATION_DATE  = 
ORIGINATOR     = 

OBJECT_NAME    = FREGAT DEB
OBJECT_ID      = 2011-037PF
CENTER_NAME    = EARTH
REF_FRAME      = TEME
TIME_SYSTEM    = UTC
MEAN_ELEMENT_THEORY = SGP/SGP4

EPOCH          = 2026-03-30T19:02:40.226496
MEAN_MOTION    = 12.40798648
ECCENTRICITY   = .09596777
INCLINATION    = 51.6447
RA_OF_ASC_NODE = 237.3845
ARG_OF_PERICENTER = 107.7914
MEAN_ANOMALY   = 262.9896

EPHEMERIS_TYPE = 0
CLASSIFICATION_TYPE = U
NORAD_CAT_ID   = 49271
ELEMENT_SET_NO = 999
REV_AT_EPOCH   = 21531
BSTAR          = .18052494E-1
MEAN_MOTION_DOT = .12642E-3
MEAN_MOTION_DDOT = 0

CCSDS_OMM_VERS = 2.0
CREATION_DATE  = 
ORIGINATOR     = 

OBJECT_NAME    = CSS (WENTIAN)
OBJECT_ID      = 2022-085A
CENTER_NAME    = EARTH
REF_FRAME      = TEME
TIME_SYSTEM    = UTC
MEAN_ELEMENT_THEORY = SGP/SGP4

EPOCH          = 2026-03-30T18:16:38.163648
MEAN_MOTION    = 15.61714186
ECCENTRICITY   = .00037162
INCLINATION    = 41.4667
RA_OF_ASC_NODE = 79.8424
ARG_OF_PERICENTER = 71.4537
MEAN_ANOMALY   = 288.6706

EPHEMERIS_TYPE = 0
CLASSIFICATION_TYPE = U
NORAD_CAT_ID   = 53239
ELEMENT_SET_NO = 999
REV_AT_EPOCH   = 28115
BSTAR          = .33197022E-3
MEAN_MOTION_DOT = .2927E-3
MEAN_MOTION_DDOT = 0

CCSDS_OMM_VERS = 2.0
CREATION_DATE  = 
ORIGINATOR     = 

OBJECT_NAME    = CSS (MENGTIAN)
OBJECT_ID      = 2022-143A
CENTER_NAME    = EARTH
REF_FRAME      = TEME
TIME_SYSTEM    = UTC
MEAN_ELEMENT_THEORY = SGP/SGP4

EPOCH          = 2026-03-30T18:16:38.163648
MEAN_MOTION    = 15.61714186
ECCENTRICITY   = .00037162
INCLINATION    = 41.4667
RA_OF_ASC_NODE = 79.8424
ARG_OF_PERICENTER = 71.4537
MEAN_ANOMALY   = 288.6706

EPHEMERIS_TYPE = 0
CLASSIFICATION_TYPE = U
NORAD_CAT_ID   = 54216
ELEMENT_SET_NO = 999
REV_AT_EPOCH   = 28115
BSTAR          = .33197022E-3
MEAN_MOTION_DOT = .2927E-3
MEAN_MOTION_DDOT = 0

CCSDS_OMM_VERS = 2.0
CREATION_DATE  = 
ORIGINATOR     = 

OBJECT_NAME    = TIANZHOU-9
OBJECT_ID      = 2025-149A
CENTER_NAME    = EARTH
REF_FRAME      = TEME
TIME_SYSTEM    = UTC
MEAN_ELEMENT_THEORY = SGP/SGP4

EPOCH          = 2026-03-30T18:16:38.163648
MEAN_MOTION    = 15.61714186
ECCENTRICITY   = .00037162
INCLINATION    = 41.4667
RA_OF_ASC_NODE = 79.8424
ARG_OF_PERICENTER = 71.4537
MEAN_ANOMALY   = 288.6706

EPHEMERIS_TYPE = 0
CLASSIFICATION_TYPE = U
NORAD_CAT_ID   = 64786
ELEMENT_SET_NO = 999
REV_AT_EPOCH   = 28115
BSTAR          = .33197022E-3
MEAN_MOTION_DOT = .2927E-3
MEAN_MOTION_DDOT = 0

CCSDS_OMM_VERS = 2.0
CREATION_DATE  = 
ORIGINATOR     = 

OBJECT_NAME    = PROGRESS-MS 32
OBJECT_ID      = 2025-204A
CENTER_NAME    = EARTH
REF_FRAME      = TEME
TIME_SYSTEM    = UTC
MEAN_ELEMENT_THEORY = SGP/SGP4

EPOCH          = 2026-03-30T22:32:53.905920
MEAN_MOTION    = 15.48666868
ECCENTRICITY   = .00062127
INCLINATION    = 51.6341
RA_OF_ASC_NODE = 327.3071
ARG_OF_PERICENTER = 253.0090
MEAN_ANOMALY   = 107.0218

EPHEMERIS_TYPE = 0
CLASSIFICATION_TYPE = U
NORAD_CAT_ID   = 65586
ELEMENT_SET_NO = 999
REV_AT_EPOCH   = 55450
BSTAR          = .22734022E-3
MEAN_MOTION_DOT = .11955E-3
MEAN_MOTION_DDOT = 0

CCSDS_OMM_VERS = 2.0
CREATION_DATE  = 
ORIGINATOR     = 

OBJECT_NAME    = YOTSUBA-KULOVER
OBJECT_ID      = 1998-067XN
CENTER_NAME    = EARTH
REF_FRAME      = TEME
TIME_SYSTEM    = UTC
MEAN_ELEMENT_THEORY = SGP/SGP4

EPOCH          = 2026-03-30T20:59:49.230240
MEAN_MOTION    = 15.93324208
ECCENTRICITY   = .00065726
INCLINATION    = 51.6172
RA_OF_ASC_NODE = 306.4965
ARG_OF_PERICENTER = 231.5077
MEAN_ANOMALY   = 128.5341

EPHEMERIS_TYPE = 0
CLASSIFICATION_TYPE = U
NORAD_CAT_ID   = 65941
ELEMENT_SET_NO = 999
REV_AT_EPOCH   = 2686
BSTAR          = .13657444E-2
MEAN_MOTION_DOT = .495843E-2
MEAN_MOTION_DDOT = .10828567E-3

CCSDS_OMM_VERS = 2.0
CREATION_DATE  = 
ORIGINATOR     = 

OBJECT_NAME    = BOTAN
OBJECT_ID      = 1998-067XQ
CENTER_NAME    = EARTH
REF_FRAME      = TEME
TIME_SYSTEM    = UTC
MEAN_ELEMENT_THEORY = SGP/SGP4

EPOCH          = 2026-03-30T21:17:53.191680
MEAN_MOTION    = 15.92257226
ECCENTRICITY   = .00067109
INCLINATION    = 51.6201
RA_OF_ASC_NODE = 306.6070
ARG_OF_PERICENTER = 226.9491
MEAN_ANOMALY   = 133.0954

EPHEMERIS_TYPE = 0
CLASSIFICATION_TYPE = U
NORAD_CAT_ID   = 65943
ELEMENT_SET_NO = 999
REV_AT_EPOCH   = 2686
BSTAR          = .13018752E-2
MEAN_MOTION_DOT = .446715E-2
MEAN_MOTION_DDOT = .88211904E-4

CCSDS_OMM_VERS = 2.0
CREATION_DATE  = 
ORIGINATOR     = 

OBJECT_NAME    = HRC MONOBLOCK CAMERA
OBJECT_ID      = 1998-067XR
CENTER_NAME    = EARTH
REF_FRAME      = TEME
TIME_SYSTEM    = UTC
MEAN_ELEMENT_THEORY = SGP/SGP4

EPOCH          = 2026-03-30T22:08:43.817568
MEAN_MOTION    = 15.64499031
ECCENTRICITY   = .00038352
INCLINATION    = 51.6277
RA_OF_ASC_NODE = 318.1910
ARG_OF_PERICENTER = 194.5569
MEAN_ANOMALY   = 165.5316

EPHEMERIS_TYPE = 0
CLASSIFICATION_TYPE = U
NORAD_CAT_ID   = 66052
ELEMENT_SET_NO = 999
REV_AT_EPOCH   = 2571
BSTAR          = .67619444E-3
MEAN_MOTION_DOT = .66422E-3
MEAN_MOTION_DDOT = 0

