ISS (ZARYA)             
1 25544U 98067A   26089.93951280  .00011955  00000+0  22734-3 0  9993
2 25544  51.6341 327.3071 0006212 253.0090 107.0218 15.48666868559629
POISK                   
1 36086U 09060A   26089.93951280  .00011955  00000+0  22734-3 0  9991
2 36086  51.6341 327.3071 0006212 253.0090 107.0218 15.48666868559037
CSS (TIANHE)            
1 48274U 21035A   26089.76155282  .00029270  00000+0  33197-3 0  9992
2 48274  41.4667  79.8424 0003716  71.4537 288.6706 15.61714186280909
ISS (NAUKA)             
1 49044U 21066A   26089.93951280  .00011955  00000+0  22734-3 0  9999
2 49044  51.6341 327.3071 0006212 253.0090 107.0218 15.48666868559079
FREGAT DEB              
1 49271U 11037PF  26089.79352114  .00012642  00000+0  18052-1 0  9993
2 49271  51.6447 237.3845 0959677 107.7914 262.9896 12.40798648215319
CSS (WENTIAN)           
1 53239U 22085A   26089.76155282  .00029270  00000+0  33197-3 0  9995
2 53239  41.4667  79.8424 0003716  71.4537 288.6706 15.61714186281154
CSS (MENGTIAN)          
1 54216U 22143A   26089.76155282  .00029270  00000+0  33197-3 0  9996
2 54216  41.4667  79.8424 0003716  71.4537 288.6706 15.61714186281150
TIANZHOU-9              
1 64786U 25149A   26089.76155282  .00029270  00000+0  33197-3 0  9998
2 64786  41.4667  79.8424 0003716  71.4537 288.6706 15.61714186281153
PROGRESS-MS 32          
1 65586U 25204A   26089.93951280  .00011955  00000+0  22734-3 0  9996
2 65586  51.6341 327.3071 0006212 253.0090 107.0218 15.48666868554501
YOTSUBA-KULOVER         
1 65941U 98067XN  26089.87487535  .00495843  10829-3  13657-2 0  9997
2 65941  51.6172 306.4965 0006572 231.5077 128.5341 15.93324208 26860
BOTAN                   
1 65943U 98067XQ  26089.88742120  .00446715  88212-4  13019-2 0  9992
2 65943  51.6201 306.6070 0006710 226.9491 133.0954 15.92257226 26861
HRC MONOBLOCK CAMERA    
1 66052U 98067XR  26089.92272937  .00066422  00000+0  67619-3 0  9996
2 66052  51.6277 318.1910 0003835 194.5569 165.5316 15.64499031 25714
